[Satellite]
VERSION=1.1
NAME=SIRIUS-2
NICKNAME=SIRIUS-2
TLE1=1 26483U 00051A   15055.09165830 -.00000020  00000-0  00000+0 0  9999
TLE2=2 26483  64.3103 117.2658 2652430 271.2523  60.2833  1.00273910 53010
